{
    "links": {
        "self": "http://www.neowsapp.com/rest/v1/neo/3741148?api_key=iIulBulltgU6a56xZRHN4H3l9WmuAYTsLGpBGhQ2"
    },
    "id": "3741148",
    "neo_reference_id": "3741148",
    "name": "(2016 BU39)",
    "designation": "2016 BU39",
    "nasa_jpl_url": "http://ssd.jpl.nasa.gov/sbdb.cgi?sstr=3741148",
    "absolute_magnitude_h": 26.8,
    "estimated_diameter": {
        "kilometers": {
            "estimated_diameter_min": 0.0116025908,
            "estimated_diameter_max": 0.0259441818
        },
        "meters": {
            "estimated_diameter_min": 11.6025908209,
            "estimated_diameter_max": 25.9441817907
        },
        "miles": {
            "estimated_diameter_min": 0.0072095135,
            "estimated_diameter_max": 0.0161209622
        },
        "feet": {
            "estimated_diameter_min": 38.066244069,
            "estimated_diameter_max": 85.1187093863
        }
    },
    "is_potentially_hazardous_asteroid": false,
    "close_approach_data": [
        {
            "close_approach_date": "2016-02-02",
            "close_approach_date_full": "2016-Feb-02 14:37",
            "epoch_date_close_approach": 1454423820000,
            "relative_velocity": {
                "kilometers_per_second": "9.7325101364",
                "kilometers_per_hour": "35037.0364911858",
                "miles_per_hour": "21770.6519242038"
            },
            "miss_distance": {
                "astronomical": "0.0445841506",
                "lunar": "17.3432345834",
                "kilometers": "6669693.965519222",
                "miles": "4144355.6538483836"
            },
            "orbiting_body": "Earth"
        },
        {
            "close_approach_date": "2016-07-15",
            "close_approach_date_full": "2016-Jul-15 03:28",
            "epoch_date_close_approach": 1468553280000,
            "relative_velocity": {
                "kilometers_per_second": "8.8501867092",
                "kilometers_per_hour": "31860.6721530709",
                "miles_per_hour": "19796.9826497789"
            },
            "miss_distance": {
                "astronomical": "0.2262068737",
                "lunar": "87.9944738693",
                "kilometers": "33840066.484879019",
                "miles": "21027242.2675237022"
            },
            "orbiting_body": "Earth"
        },
        {
            "close_approach_date": "2020-07-10",
            "close_approach_date_full": "2020-Jul-10 06:38",
            "epoch_date_close_approach": 1594363080000,
            "relative_velocity": {
                "kilometers_per_second": "8.5839310236",
                "kilometers_per_hour": "30902.1516850527",
                "miles_per_hour": "19201.3953067484"
            },
            "miss_distance": {
                "astronomical": "0.0745146632",
                "lunar": "28.9862039848",
                "kilometers": "11147234.898487384",
                "miles": "6926570.5765745392"
            },
            "orbiting_body": "Mars"
        }
    ],
    "orbital_data": {
        "orbit_id": "3",
        "orbit_determination_date": "2017-04-06 08:28:48",
        "first_observation_date": "2016-01-30",
        "last_observation_date": "2016-02-03",
        "data_arc_in_days": 4,
        "observations_used": 27,
        "orbit_uncertainty": "8",
        "minimum_orbit_intersection": ".0430601",
        "jupiter_tisserand_invariant": "5.283",
        "epoch_osculation": "2457418.5",
        "eccentricity": ".1964564492097617",
        "semi_major_axis": "1.186983930785617",
        "inclination": "16.28720799471221",
        "ascending_node_longitude": "128.5293105851186",
        "orbital_period": "472.3519213462034",
        "perihelion_distance": ".9537932824744294",
        "perihelion_argument": "58.26355908056268",
        "aphelion_distance": "1.420174579096805",
        "perihelion_time": "2457470.428289097233",
        "mean_anomaly": "320.4231861241817",
        "mean_motion": ".7621436131221815",
        "equinox": "J2000",
        "orbit_class": {
            "orbit_class_type": "APO",
            "orbit_class_description": "Near-Earth asteroid orbits which cross the Earth’s orbit similar to that of 1862 Apollo",
            "orbit_class_range": "a (semi-major axis) > 1.0 AU; q (perihelion) < 1.017 AU"
        }
    },
    "is_sentry_object": false
}